{
    "links": {
        "self": "http://www.neowsapp.com/rest/v1/neo/3836156?api_key=iIulBulltgU6a56xZRHN4H3l9WmuAYTsLGpBGhQ2"
    },
    "id": "3836156",
    "neo_reference_id": "3836156",
    "name": "(2018 VG6)",
    "designation": "2018 VG6",
    "nasa_jpl_url": "http://ssd.jpl.nasa.gov/sbdb.cgi?sstr=3836156",
    "absolute_magnitude_h": 26.5,
    "estimated_diameter": {
        "kilometers": {
            "estimated_diameter_min": 0.0133215567,
            "estimated_diameter_max": 0.0297879063
        },
        "meters": {
            "estimated_diameter_min": 13.3215566698,
            "estimated_diameter_max": 29.7879062798
        },
        "miles": {
            "estimated_diameter_min": 0.008277629,
            "estimated_diameter_max": 0.0185093411
        },
        "feet": {
            "estimated_diameter_min": 43.7058959846,
            "estimated_diameter_max": 97.7293544391
        }
    },
    "is_potentially_hazardous_asteroid": false,
    "close_approach_data": [
        {
            "close_approach_date": "2016-08-27",
            "close_approach_date_full": "2016-Aug-27 16:44",
            "epoch_date_close_approach": 1472316240000,
            "relative_velocity": {
                "kilometers_per_second": "18.6613796492",
                "kilometers_per_hour": "67180.966737264",
                "miles_per_hour": "41743.640137385"
            },
            "miss_distance": {
                "astronomical": "0.4600938039",
                "lunar": "178.9764897171",
                "kilometers": "68829053.063637693",
                "miles": "42768390.3771304434"
            },
            "orbiting_body": "Earth"
        },
        {
            "close_approach_date": "2018-07-22",
            "close_approach_date_full": "2018-Jul-22 05:42",
            "epoch_date_close_approach": 1532238120000,
            "relative_velocity": {
                "kilometers_per_second": "9.9205370205",
                "kilometers_per_hour": "35713.9332738496",
                "miles_per_hour": "22191.2492611873"
            },
            "miss_distance": {
                "astronomical": "0.0922140917",
                "lunar": "35.8712816713",
                "kilometers": "13795031.702304679",
                "miles": "8571835.2185314102"
            },
            "orbiting_body": "Mars"
        },
        {
            "close_approach_date": "2018-11-09",
            "close_approach_date_full": "2018-Nov-09 01:58",
            "epoch_date_close_approach": 1541728680000,
            "relative_velocity": {
                "kilometers_per_second": "5.498990258",
                "kilometers_per_hour": "19796.3649286327",
                "miles_per_hour": "12300.6913080162"
            },
            "miss_distance": {
                "astronomical": "0.0404621241",
                "lunar": "15.7397662749",
                "kilometers": "6053047.581035667",
                "miles": "3761189.3581875246"
            },
            "orbiting_body": "Earth"
        }
    ],
    "orbital_data": {
        "orbit_id": "4",
        "orbit_determination_date": "2018-11-19 06:41:40",
        "first_observation_date": "2018-11-07",
        "last_observation_date": "2018-11-15",
        "data_arc_in_days": 8,
        "observations_used": 27,
        "orbit_uncertainty": "7",
        "minimum_orbit_intersection": ".023956",
        "jupiter_tisserand_invariant": "4.217",
        "epoch_osculation": "2459000.5",
        "eccentricity": ".3782546202928904",
        "semi_major_axis": "1.63655903452536",
        "inclination": "2.24417359035122",
        "ascending_node_longitude": "33.61388854306332",
        "orbital_period": "764.7085409250344",
        "perihelion_distance": "1.01752301833407",
        "perihelion_argument": ".1923946606925094",
        "aphelion_distance": "2.255595050716649",
        "perihelion_time": "2459186.151110773463",
        "mean_anomaly": "272.6014732389416",
        "mean_motion": ".4707675941013079",
        "equinox": "J2000",
        "orbit_class": {
            "orbit_class_type": "AMO",
            "orbit_class_description": "Near-Earth asteroid orbits similar to that of 1221 Amor",
            "orbit_class_range": "1.017 AU < q (perihelion) < 1.3 AU"
        }
    },
    "is_sentry_object": false
}